BEESAT-4                
1 41619U 16040W   21236.86580723  .00001829  00000-0  74075-4 0  9992
2 41619  97.2637 291.0338 0012390  90.6388 269.6270 15.25856329275442
CAS-2T & KS-1Q          
1 41847U 16066G   21236.86385215  .00000060  00000-0  19188-4 0  9992
2 41847  98.5958 296.2544 0365428  16.3592 344.9030 14.38227265251715
NAYIF-1 (EO-88)         
1 42017U 17008BX  21236.91270734  .00001980  00000-0  73897-4 0  9993
2 42017  97.3110 303.2864 0004948 209.8448 150.2510 15.28551884251710
ZHUHAI-1 02 (CAS-4B)    
1 42759U 17034B   21236.88191481  .00000407  00000-0  37710-4 0  9999
2 42759  43.0167 164.8556 0009021 240.2369 226.9164 15.10317748231499
ZHUHAI-1 01 (CAS-4A)    
1 42761U 17034D   21236.86851708  .00000508  00000-0  43645-4 0  9991
2 42761  43.0178 163.9338 0009559 241.5267 223.4618 15.10406416231496
MAX VALIER SAT          
1 42778U 17036P   21236.86401155  .00001132  00000-0  49756-4 0  9991
2 42778  97.2498 283.2204 0010079 299.0472  60.9755 15.23835165231704
RADFXSAT (FOX-1B)       
1 43017U 17073E   21236.70502575  .00001019  00000-0  82523-4 0  9993
2 43017  97.6990 137.9675 0256097  77.7249 285.2510 14.79656054203218
FOX-1D (AO-92)          
1 43137U 18004AC  21236.75270511  .00001639  00000-0  67503-4 0  9997
2 43137  97.4029 310.0835 0007969 341.2539  18.8405 15.25506978201073
DIWATA-2B               
1 43678U 18084H   21236.87091546  .00000311  00000-0  36618-4 0  9996
2 43678  97.9320   2.5351 0009928 176.1030 184.0259 14.91780370153639
ES'HAIL 2               
1 43700U 18090A   21236.82039303  .00000127  00000-0  00000-0 0  9994
2 43700   0.0176 210.0139 0002299 334.5470 109.9076  1.00273540 10054
FOX-1CLIFF (AO-95)      
1 43770U 18099N   21236.83701629 -.00000089  00000-0 -29369-5 0  9991
2 43770  97.6607 305.5014 0014367 183.2559 176.8571 14.95394766148675
ITASAT 1                
1 43786U 18099AE  21236.74305116  .00000863  00000-0  82510-4 0  9993
2 43786  97.6628 306.1350 0015311 176.3157 183.8180 14.95679551148696
JY1SAT (JO-97)          
1 43803U 18099AX  21236.42775034  .00000331  00000-0  34596-4 0  9999
2 43803  97.6592 305.5713 0015072 177.1341 182.9970 14.95942581148659
UWE-4                   
1 43880U 18111E   21236.69989763  .00000863  00000-0  80085-4 0  9998
2 43880  97.6810 143.2532 0010584 230.6532 129.3753 14.96951674145298
NEXUS (FO-99)           
1 43937U 19003F   21236.91580375  .00001799  00000-0  72021-4 0  9993
2 43937  97.1715 277.3470 0024485 127.0999 233.2483 15.26044130144705
PSAT2 (NO-104)          
1 44354U 19036R   21236.63000343  .00008337  00000-0  10401-3 0  9992
2 44354  28.5305  31.7045 0316618 296.5777  60.2700 15.15795765119325
BRICSAT2 (NO-103)       
1 44355U 19036S   21236.59392205  .00023953 -57985-5  22763-3 0  9994
2 44355  28.5258 334.7925 0246014  29.4190 332.0014 15.34458211119893
JAISAT-1                
1 44419U 19038F   21236.85122772  .00001254  00000-0  72495-4 0  9994
2 44419  97.5940 201.3294 0022712  77.3823 282.9947 15.13956461118140
DUCHIFAT-3              
1 44854U 19089C   21236.84505832  .00000455  00000-0  42630-4 0  9994
2 44854  36.9669  56.1528 0009614 329.9439  30.0766 14.99582577 93373
CAS-6 (TO-108)          
1 44881U 19093C   21236.81976551  .00000049  00000-0  13067-4 0  9997
2 44881  97.9217 314.8959 0016428  72.1560 288.1441 14.81472784 90859
RS-44 & BREEZE-KM R/B   
1 44909U 19096E   21236.87984890 -.00000011  00000-0 -79193-4 0  9995
2 44909  82.5177  67.3396 0216483 293.2591  64.5851 12.79710589 77571
ORBITAL FACTORY 2 (OF-2)
1 45113U 19071C   21236.91440598  .00002907  00000-0  91651-4 0  9990
2 45113  51.6420  65.4458 0011854 178.3486 181.7538 15.36270541 87699
HUSKYSAT-1 (HO-107)     
1 45119U 19071J   21236.79534229  .00003246  00000-0  10111-3 0  9995
2 45119  51.6417  65.3940 0011344 174.3653 185.7460 15.36257377 87670
BY70-2                  
1 45857U 20042B   21236.79161886  .00001136  00000-0  16761-3 0  9992
2 45857  97.9822 311.8300 0010631   3.0075 357.1196 14.77209825 61633
SALSAT                  
1 46495U 20068K   21236.94442426  .00000093  00000-0  11356-4 0  9995
2 46495  97.6967 174.0461 0016047 194.0840 165.9932 15.03524319 49620
BY70-3                  
1 46839U 20079N   21236.95924421  .00003091  00000-0  95834-4 0  9994
2 46839  97.2370 309.4621 0005992 332.6520 202.3842 15.34152586 44707
RADFXSAT-2 (AO-109)     
1 47311U 21002C   21236.75598605  .00001251  00000-0  65468-4 0  9992
2 47311  60.6865  35.4674 0041886  83.4056 277.1796 15.21886896 33268
UVSQ-SAT                
1 47438U 21006AB  21236.68993492  .00001029  00000-0  61424-4 0  9992
2 47438  97.4821 296.6793 0011737 216.4637 143.5796 15.13290605 32371
DIY-1 (ARDUIQUBE)       
1 47963U 21022AH  21236.66764110  .00002800  00000-0  18741-3 0  9995
2 47963  97.5515 137.7856 0021389  72.5479 287.8085 15.07561365 22176
